COMMENT,ORIGINATOR,NORAD_CAT_ID,OBJECT_NAME,OBJECT_TYPE,CLASSIFICATION_TYPE,INTLDES,EPOCH,EPOCH_MICROSECONDS,MEAN_MOTION,ECCENTRICITY,INCLINATION,RA_OF_ASC_NODE,ARG_OF_PERICENTER,MEAN_ANOMALY,EPHEMERIS_TYPE,ELEMENT_SET_NO,REV_AT_EPOCH,BSTAR,MEAN_MOTION_DOT,MEAN_MOTION_DDOT,FILE,TLE_LINE0,TLE_LINE1,TLE_LINE2,OBJECT_ID,OBJECT_NUMBER,SEMIMAJOR_AXIS,PERIOD,APOGEE,PERIGEE,DECAYED
"GENERATED VIA SPACETRACK.ORG API","18 SPCS","56232","FENGYUN 3G","PAYLOAD","U","23055A","2024-03-31 13:45:55","159776","15.54267856","0.0009589","49.9958","190.6247","70.4891","289.7112","0","999","5447","0.00065263","0.00043322","0","4255542","0 FENGYUN 3G","1 56232U 23055A   24091.57355509  .00043322  00000-0  65263-3 0  9997","2 56232  49.9958 190.6247 0009589  70.4891 289.7112 15.54267856 54472","2023-055A","56232","6782.419","92.648","410.787","397.780","0"
"GENERATED VIA SPACETRACK.ORG API","18 SPCS","56232","FENGYUN 3G","PAYLOAD","U","23055A","2024-03-31 13:45:55","161504","15.54267894","0.0009588","49.9958","190.6248","70.4297","289.7705","0","999","5447","0.00065316","0.00043358","0","4255611","0 FENGYUN 3G","1 56232U 23055A   24091.57355511  .00043358  00000-0  65316-3 0  9998","2 56232  49.9958 190.6248 0009588  70.4297 289.7705 15.54267894 54472","2023-055A","56232","6782.419","92.648","410.787","397.781","0"
"GENERATED VIA SPACETRACK.ORG API","18 SPCS","56232","FENGYUN 3G","PAYLOAD","U","23055A","2024-03-31 19:56:13","566912","15.54289533","0.0009576","49.9957","189.2968","71.4941","288.7067","0","999","5451","0.00061333","0.00040703","0","4256227","0 FENGYUN 3G","1 56232U 23055A   24091.83071258  .00040703  00000-0  61333-3 0  9996","2 56232  49.9957 189.2968 0009576  71.4941 288.7067 15.54289533 54517","2023-055A","56232","6782.356","92.647","410.715","397.726","0"
"GENERATED VIA SPACETRACK.ORG API","18 SPCS","56232","FENGYUN 3G","PAYLOAD","U","23055A","2024-03-31 19:56:13","566912","15.54289533","0.0009576","49.9957","189.2968","71.4941","288.7067","0","999","5451","0.00061333","0.00040703","0","4256238","0 FENGYUN 3G","1 56232U 23055A   24091.83071258  .00040703  00000-0  61333-3 0  9996","2 56232  49.9957 189.2968 0009576  71.4941 288.7067 15.54289533 54517","2023-055A","56232","6782.356","92.647","410.715","397.726","0"
"GENERATED VIA SPACETRACK.ORG API","18 SPCS","56232","FENGYUN 3G","PAYLOAD","U","23055A","2024-04-01 03:39:06","125472","15.54317362","0.0009558","49.9957","187.6365","72.7407","287.4606","0","999","5456","0.00061681","0.0004098","0","4256858","0 FENGYUN 3G","1 56232U 23055A   24092.15215423  .00040980  00000-0  61681-3 0  9999","2 56232  49.9957 187.6365 0009558  72.7407 287.4606 15.54317362 54563","2023-055A","56232","6782.275","92.645","410.622","397.657","0"
"GENERATED VIA SPACETRACK.ORG API","18 SPCS","56232","FENGYUN 3G","PAYLOAD","U","23055A","2024-04-01 12:54:32","564160","15.54352154","0.0009549","49.9958","185.6441","74.2885","285.9135","0","999","5462","0.00066637","0.00044387","0","4257465","0 FENGYUN 3G","1 56232U 23055A   24092.53787690  .00044387  00000-0  66637-3 0  9992","2 56232  49.9958 185.6441 0009549  74.2885 285.9135 15.54352154 54629","2023-055A","56232","6782.173","92.643","410.515","397.562","0"
"GENERATED VIA SPACETRACK.ORG API","18 SPCS","56232","FENGYUN 3G","PAYLOAD","U","23055A","2024-04-01 14:27:06","905664","15.54356986","0.000955","49.9958","185.3119","74.5681","285.6341","0","999","5463","0.00065485","0.00043615","0","4257565","0 FENGYUN 3G","1 56232U 23055A   24092.60216326  .00043615  00000-0  65485-3 0  9996","2 56232  49.9958 185.3119 0009550  74.5681 285.6341 15.54356986 54631","2023-055A","56232","6782.159","92.643","410.501","397.547","0"
"GENERATED VIA SPACETRACK.ORG API","18 SPCS","56232","FENGYUN 3G","PAYLOAD","U","23055A","2024-04-01 19:04:49","802304","15.54373351","0.0009545","49.9957","184.3155","75.3655","284.837","0","999","5466","0.00064321","0.00042853","0","4258124","0 FENGYUN 3G","1 56232U 23055A   24092.79502086  .00042853  00000-0  64321-3 0  9998","2 56232  49.9957 184.3155 0009545  75.3655 284.8370 15.54373351 54664","2023-055A","56232","6782.112","92.642","410.450","397.503","0"
"GENERATED VIA SPACETRACK.ORG API","18 SPCS","56232","FENGYUN 3G","PAYLOAD","U","23055A","2024-04-02 05:52:49","206144","15.54408954","0.0009538","49.9959","181.9906","77.3409","282.8625","0","999","5473","0.00058953","0.0003927","0","4258748","0 FENGYUN 3G","1 56232U 23055A   24093.24501396  .00039270  00000-0  58953-3 0  9995","2 56232  49.9959 181.9906 0009538  77.3409 282.8625 15.54408954 54731","2023-055A","56232","6782.008","92.640","410.342","397.405","0"
"GENERATED VIA SPACETRACK.ORG API","18 SPCS","56232","FENGYUN 3G","PAYLOAD","U","23055A","2024-04-02 12:03:05","639904","15.54426991","0.0009551","49.996","180.6624","78.3189","281.885","0","999","5477","0.00055561","0.00036997","0","4259402","0 FENGYUN 3G","1 56232U 23055A   24093.50214861  .00036997  00000-0  55561-3 0  9997","2 56232  49.9960 180.6624 0009551  78.3189 281.8850 15.54426991 54771","2023-055A","56232","6781.956","92.639","410.298","397.343","0"
"GENERATED VIA SPACETRACK.ORG API","18 SPCS","56232","FENGYUN 3G","PAYLOAD","U","23055A","2024-04-02 13:35:39","697152","15.54432742","0.0009557","49.996","180.3302","78.549","281.6551","0","999","5478","0.00056534","0.00037665","0","4259431","0 FENGYUN 3G","1 56232U 23055A   24093.56643168  .00037665  00000-0  56534-3 0  9993","2 56232  49.9960 180.3302 0009557  78.5490 281.6551 15.54432742 54782","2023-055A","56232","6781.939","92.638","410.286","397.323","0"
"GENERATED VIA SPACETRACK.ORG API","18 SPCS","56232","FENGYUN 3G","PAYLOAD","U","23055A","2024-04-02 19:45:55","759392","15.54451939","0.0009555","49.996","179.0015","79.6399","280.5645","0","999","5482","0.00053706","0.00035773","0","4260012","0 FENGYUN 3G","1 56232U 23055A   24093.82356203  .00035773  00000-0  53706-3 0  9999","2 56232  49.9960 179.0015 0009555  79.6399 280.5645 15.54451939 54822","2023-055A","56232","6781.883","92.637","410.228","397.268","0"
"GENERATED VIA SPACETRACK.ORG API","18 SPCS","56232","FENGYUN 3G","PAYLOAD","U","23055A","2024-04-02 21:18:29","734560","15.54456261","0.0009559","49.996","178.6696","79.898","280.3066","0","999","5483","0.00052598","0.00035028","0","4260070","0 FENGYUN 3G","1 56232U 23055A   24093.88784415  .00035028  00000-0  52598-3 0  9996","2 56232  49.9960 178.6696 0009559  79.8980 280.3066 15.54456261 54833","2023-055A","56232","6781.871","92.637","410.218","397.253","0"
"GENERATED VIA SPACETRACK.ORG API","18 SPCS","56232","FENGYUN 3G","PAYLOAD","U","23055A","2024-04-03 01:56:11","559840","15.54470753","0.0009564","49.996","177.6731","80.6835","279.5214","0","999","5486","0.00053862","0.00035904","0","4260555","0 FENGYUN 3G","1 56232U 23055A   24094.08068935  .00035904  00000-0  53862-3 0  9999","2 56232  49.9960 177.6731 0009564  80.6835 279.5214 15.54470753 54867","2023-055A","56232","6781.829","92.636","410.180","397.207","0"
"GENERATED VIA SPACETRACK.ORG API","18 SPCS","56232","FENGYUN 3G","PAYLOAD","U","23055A","2024-04-03 06:34:22","18944","15.5182125","0.0017489","49.9964","176.68","45.0722","315.166","0","999","5489","0.00044805","0.00027115","0","4261255","0 FENGYUN 3G","1 56232U 23055A   24094.27386596  .00027115  00000-0  44805-3 0  9998","2 56232  49.9964 176.6800 0017489  45.0722 315.1660 15.51821250 54896","2023-055A","56232","6789.546","92.794","423.285","399.536","0"
"GENERATED VIA SPACETRACK.ORG API","18 SPCS","56232","FENGYUN 3G","PAYLOAD","U","23055A","2024-04-03 14:17:58","940448","15.51839047","0.0017469","49.9961","175.0227","46.859","313.3834","0","999","5494","0.00044797","0.00027127","0","4261282","0 FENGYUN 3G","1 56232U 23055A   24094.59582107  .00027127  00000-0  44797-3 0  9992","2 56232  49.9961 175.0227 0017469  46.8590 313.3834 15.51839047 54941","2023-055A","56232","6789.494","92.793","423.219","399.498","0"
"GENERATED VIA SPACETRACK.ORG API","18 SPCS","56232","FENGYUN 3G","PAYLOAD","U","23055A","2024-04-03 18:56:08","926944","15.51851648","0.0017452","49.996","174.0287","47.7617","312.4827","0","999","5497","0.0004688","0.00028428","0","4261851","0 FENGYUN 3G","1 56232U 23055A   24094.78899221  .00028428  00000-0  46880-3 0  9991","2 56232  49.9960 174.0287 0017452  47.7617 312.4827 15.51851648 54973","2023-055A","56232","6789.457","92.792","423.171","399.473","0"
"GENERATED VIA SPACETRACK.ORG API","18 SPCS","56232","FENGYUN 3G","PAYLOAD","U","23055A","2024-04-03 22:01:35","514624","15.51857535","0.0017431","49.9961","173.3659","48.3294","311.9161","0","999","5499","0.00043773","0.00026511","0","4261881","0 FENGYUN 3G","1 56232U 23055A   24094.91777216  .00026511  00000-0  43773-3 0  9994","2 56232  49.9961 173.3659 0017431  48.3294 311.9161 15.51857535 54992","2023-055A","56232","6789.440","92.792","423.139","399.470","0"
"GENERATED VIA SPACETRACK.ORG API","18 SPCS","56232","FENGYUN 3G","PAYLOAD","U","23055A","2024-04-04 05:45:11","837376","15.51872756","0.0017405","49.9962","171.7096","49.878","310.3709","0","999","5504","0.00040239","0.00024339","0","4262474","0 FENGYUN 3G","1 56232U 23055A   24095.23972034  .00024339  00000-0  40239-3 0  9995","2 56232  49.9962 171.7096 0017405  49.8780 310.3709 15.51872756 55047","2023-055A","56232","6789.395","92.791","423.077","399.443","0"
"GENERATED VIA SPACETRACK.ORG API","18 SPCS","56232","FENGYUN 3G","PAYLOAD","U","23055A","2024-04-04 11:56:04","686144","15.51887003","0.001741","49.9962","170.3845","50.9516","309.2997","0","999","5508","0.00045227","0.0002744","0","4263088","0 FENGYUN 3G","1 56232U 23055A   24095.49727646  .00027440  00000-0  45227-3 0  9998","2 56232  49.9962 170.3845 0017410  50.9516 309.2997 15.51887003 55081","2023-055A","56232","6789.354","92.790","423.039","399.399","0"
